NORAD_CAT_ID,OBJECT_NAME,OBJECT_TYPE,EPOCH,MEAN_MOTION,ECCENTRICITY,INCLINATION,RA_OF_ASC_NODE,ARG_OF_PERICENTER,MEAN_ANOMALY,BSTAR,MEAN_MOTION_DOT,MEAN_MOTION_DDOT,TLE_LINE0,TLE_LINE1,TLE_LINE2,SEMIMAJOR_AXIS,PERIOD,APOGEE,PERIGEE,DECAYED
55663.0,STARLINK-5473,PAYLOAD,2023-06-10 08:59:14,15.69936095,0.0002513,70.0001,193.335,253.0876,107.0044,3.2013e-05,3.64e-05,0.0,0 STARLINK-5473,1 55663U 23021AM  23161.37446947  .00003640  00000-0  32013-4 0  9996,2 55663  70.0001 193.3350 0002513 253.0876 107.0044 15.69936095 18212,6737.217,91.723,360.775,357.389,0.0
55663.0,STARLINK-5473,PAYLOAD,2023-06-10 12:02:44,15.6993619,0.000409,69.997,192.9746,272.6833,87.3895,2.8632e-05,3.233e-05,0.0,0 STARLINK-5473,1 55663U 23021AM  23161.50190295  .00003233  00000-0  28632-4 0  9993,2 55663  69.9970 192.9746 0004090 272.6833  87.3895 15.69936190 18546,6737.217,91.723,361.837,356.326,0.0
55663.0,STARLINK-5473,PAYLOAD,2023-06-10 19:41:31,15.6992419,0.0003422,69.9962,192.0785,267.5926,92.4878,-1.6796e-06,-4.15e-06,0.0,0 STARLINK-5473,1 55663U 23021AM  23161.82049891 -.00000415  00000-0 -16796-5 0  9993,2 55663  69.9962 192.0785 0003422 267.5926  92.4878 15.69924190 18595,6737.251,91.724,361.421,356.81,0.0
55663.0,STARLINK-5473,PAYLOAD,2023-06-11 01:48:31,15.6992043,0.0003416,69.9971,191.3613,265.522,94.5585,8.7902e-06,8.44e-06,0.0,0 STARLINK-5473,1 55663U 23021AM  23162.07536555  .00000844  00000-0  87902-5 0  9990,2 55663  69.9971 191.3613 0003416 265.5220  94.5585 15.69920430 18327,6737.262,91.724,361.428,356.825,0.0
55663.0,STARLINK-5473,PAYLOAD,2023-06-11 04:52:01,15.69921512,0.0003427,69.9975,191.0035,267.123,92.9574,1.1065e-05,1.118e-05,0.0,0 STARLINK-5473,1 55663U 23021AM  23162.20279836  .00001118  00000-0  11065-4 0  9992,2 55663  69.9975 191.0035 0003427 267.1230  92.9574 15.69921512 18655,6737.259,91.724,361.432,356.815,0.0
55663.0,STARLINK-5473,PAYLOAD,2023-06-11 10:59:02,15.6992539,0.0003558,69.9975,190.2875,267.3946,92.6843,1.1736e-06,-7.2e-07,0.0,0 STARLINK-5473,1 55663U 23021AM  23162.45766524 -.00000072  00000-0  11736-5 0  9999,2 55663  69.9975 190.2875 0003558 267.3946  92.6843 15.69925390 18697,6737.247,91.724,361.51,356.715,0.0
55663.0,STARLINK-5473,PAYLOAD,2023-06-12 08:23:33,15.69930895,0.0003373,69.9982,187.7796,266.1348,93.9462,-2.536e-06,-5.18e-06,0.0,0 STARLINK-5473,1 55663U 23021AM  23163.34969715 -.00000518  00000-0 -25360-5 0  9999,2 55663  69.9982 187.7796 0003373 266.1348  93.9462 15.69930895 18525,6737.232,91.724,361.369,356.824,0.0
55663.0,STARLINK-5473,PAYLOAD,2023-06-12 11:27:04,15.69926704,0.0003494,69.9981,187.4215,268.6586,91.4209,-7.4019e-06,-1.103e-05,0.0,0 STARLINK-5473,1 55663U 23021AM  23163.47713384 -.00001103  00000-0 -74019-5 0  9998,2 55663  69.9981 187.4215 0003494 268.6586  91.4209 15.69926704 18854,6737.244,91.724,361.463,356.755,0.0
55663.0,STARLINK-5473,PAYLOAD,2023-06-12 19:05:50,15.69918702,0.0003487,69.9972,186.5259,269.8523,90.2273,-9.4716e-06,-1.351e-05,0.0,0 STARLINK-5473,1 55663U 23021AM  23163.79572250 -.00001351  00000-0 -94716-5 0  9999,2 55663  69.9972 186.5259 0003487 269.8523  90.2273 15.69918702 18596,6737.267,91.724,361.481,356.782,0.0
55663.0,STARLINK-5473,PAYLOAD,2023-06-13 04:16:20,15.69929908,0.0003573,69.9972,185.4509,271.1601,88.9186,1.446e-05,1.527e-05,0.0,0 STARLINK-5473,1 55663U 23021AM  23164.17801162  .00001527  00000-0  14460-4 0  9999,2 55663  69.9972 185.4509 0003573 271.1601  88.9186 15.69929908 18655,6737.235,91.724,361.507,356.692,0.0
55663.0,STARLINK-5473,PAYLOAD,2023-06-13 11:55:06,15.6992076,0.0003627,69.9973,184.5552,271.6894,88.3886,1.0403e-06,-8.8e-07,0.0,0 STARLINK-5473,1 55663U 23021AM  23164.49660228 -.00000088  00000-0  10403-5 0  9996,2 55663  69.9973 184.5552 0003627 271.6894  88.3886 15.69920760 18707,6737.261,91.724,361.569,356.682,0.0
55663.0,STARLINK-5473,PAYLOAD,2023-06-13 13:26:51,15.69925539,0.0003605,69.9973,184.3761,271.641,88.4372,3.6794e-06,2.3e-06,0.0,0 STARLINK-5473,1 55663U 23021AM  23164.56031574  .00000230  00000-0  36794-5 0  9999,2 55663  69.9973 184.3761 0003605 271.6410  88.4372 15.69925539 19023,6737.247,91.724,361.541,356.683,0.0
55663.0,STARLINK-5473,PAYLOAD,2023-06-13 21:05:37,15.69924261,0.0003627,69.9973,183.4806,279.9463,80.1323,2.8093e-06,1.25e-06,0.0,0 STARLINK-5473,1 55663U 23021AM  23164.87890118  .00000125  00000-0  28093-5 0  9996,2 55663  69.9973 183.4806 0003627 279.9463  80.1323 15.69924261 19077,6737.251,91.724,361.559,356.672,0.0
55663.0,STARLINK-5473,PAYLOAD,2023-06-14 10:51:24,15.69907672,0.0003606,69.9972,181.8683,273.4135,86.6648,-1.0367e-05,-1.458e-05,0.0,0 STARLINK-5473,1 55663U 23021AM  23165.45236385 -.00001458  00000-0 -10367-4 0  9997,2 55663  69.9972 181.8683 0003606 273.4135  86.6648 15.69907672 18856,6737.298,91.725,361.593,356.734,0.0
55663.0,STARLINK-5473,PAYLOAD,2023-06-14 12:23:09,15.69909107,0.0003604,69.9972,181.6891,273.2701,86.8082,-8.3618e-06,-1.218e-05,0.0,0 STARLINK-5473,1 55663U 23021AM  23165.51607992 -.00001218  00000-0 -83618-5 0  9994,2 55663  69.9972 181.6891 0003604 273.2701  86.8082 15.69909107 19175,6737.294,91.725,361.587,356.731,0.0
55663.0,STARLINK-5473,PAYLOAD,2023-06-14 20:01:54,15.69919873,0.0003616,69.9972,180.7934,272.6335,87.4447,1.3609e-05,1.423e-05,0.0,0 STARLINK-5473,1 55663U 23021AM  23165.83465510  .00001423  00000-0  13609-4 0  9995,2 55663  69.9972 180.7934 0003616 272.6335  87.4447 15.69919873 19221,6737.263,91.724,361.564,356.692,0.0
55663.0,STARLINK-5473,PAYLOAD,2023-06-15 03:40:39,15.69930454,0.000363,69.9985,179.8977,271.9447,88.1333,2.2692e-05,2.517e-05,0.0,0 STARLINK-5473,1 55663U 23021AM  23166.15323472  .00002517  00000-0  22692-4 0  9998,2 55663  69.9985 179.8977 0003630 271.9447  88.1333 15.69930454 18963,6737.233,91.724,361.544,356.652,0.0
55663.0,STARLINK-5473,PAYLOAD,2023-06-15 09:47:40,15.69917483,0.0003481,69.9991,179.181,277.6022,82.4778,2.9737e-05,3.363e-05,0.0,0 STARLINK-5473,1 55663U 23021AM  23166.40810617  .00003363  00000-0  29737-4 0  9995,2 55663  69.9991 179.1810 0003481 277.6022  82.4778 15.69917483 19008,6737.27,91.725,361.48,356.79,0.0
55663.0,STARLINK-5473,PAYLOAD,2023-06-15 12:51:10,15.69923793,0.0003493,69.999,178.8226,277.7981,82.2818,9.3244e-05,0.00011014,0.0,0 STARLINK-5473,1 55663U 23021AM  23166.53553983  .00011014  00000-0  93244-4 0  9995,2 55663  69.9990 178.8226 0003493 277.7981  82.2818 15.69923793 19332,6737.252,91.724,361.47,356.764,0.0
55663.0,STARLINK-5473,PAYLOAD,2023-06-15 14:22:55,15.69928963,0.0003496,69.9989,178.6434,277.2826,82.7973,0.00014805,0.0001763,0.0,0 STARLINK-5473,1 55663U 23021AM  23166.59925652  .00017630  00000-0  14805-3 0  9992,2 55663  69.9989 178.6434 0003496 277.2826  82.7973 15.69928963 19033,6737.237,91.724,361.458,356.747,0.0
55663.0,STARLINK-5473,PAYLOAD,2023-06-16 10:15:41,15.69943086,0.0003509,69.999,176.315,276.8446,83.235,0.00011701,0.00013891,0.0,0 STARLINK-5473,1 55663U 23021AM  23167.42756693  .00013891  00000-0  11701-3 0  9999,2 55663  69.9990 176.3150 0003509 276.8446  83.2350 15.69943086 19165,6737.197,91.723,361.426,356.698,0.0
55663.0,STARLINK-5473,PAYLOAD,2023-06-16 11:47:26,15.69948384,0.0003502,69.9989,176.1358,276.9877,83.092,0.00014588,0.00017382,0.0,0 STARLINK-5473,1 55663U 23021AM  23167.49128260  .00017382  00000-0  14588-3 0  9994,2 55663  69.9989 176.1358 0003502 276.9877  83.0920 15.69948384 19485,6737.182,91.723,361.406,356.687,0.0
55663.0,STARLINK-5473,PAYLOAD,2023-06-16 14:50:57,15.69927843,0.0003364,69.9989,175.7776,278.0491,82.0323,-1.3542e-05,-1.841e-05,0.0,0 STARLINK-5473,1 55663U 23021AM  23167.61871837 -.00001841  00000-0 -13542-4 0  9998,2 55663  69.9989 175.7776 0003364 278.0491  82.0323 15.69927843 19196,6737.24,91.724,361.372,356.839,0.0
55663.0,STARLINK-5473,PAYLOAD,2023-06-16 19:26:12,15.69936759,0.0003472,69.999,175.2401,273.6947,86.3852,0.00011063,0.00013117,0.0,0 STARLINK-5473,1 55663U 23021AM  23167.80986730  .00013117  00000-0  11063-3 0  9990,2 55663  69.9990 175.2401 0003472 273.6947  86.3852 15.69936759 19533,6737.215,91.723,361.419,356.741,0.0
55663.0,STARLINK-5473,PAYLOAD,2023-06-17 01:33:13,15.69913471,0.0003483,69.999,174.5235,272.0893,87.9903,3.0223e-05,3.421e-05,0.0,0 STARLINK-5473,1 55663U 23021AM  23168.06473888  .00003421  00000-0  30223-4 0  9991,2 55663  69.9990 174.5235 0003483 272.0893  87.9903 15.69913471 19265,6737.282,91.725,361.493,356.8,0.0
55663.0,STARLINK-5473,PAYLOAD,2023-06-17 12:15:29,15.69926981,0.0003464,69.9989,173.2693,269.0139,91.066,0.00023679,0.00028359,0.0,0 STARLINK-5473,1 55663U 23021AM  23168.51075961  .00028359  00000-0  23679-3 0  9994,2 55663  69.9989 173.2693 0003464 269.0139  91.0660 15.69926981 19643,6737.243,91.724,361.442,356.774,0.0
55663.0,STARLINK-5473,PAYLOAD,2023-06-17 18:22:29,15.69943309,0.0003473,69.9991,172.553,269.7615,90.3182,0.00025965,0.00031149,0.0,0 STARLINK-5473,1 55663U 23021AM  23168.76562411  .00031149  00000-0  25965-3 0  9993,2 55663  69.9991 172.5530 0003473 269.7615  90.3182 15.69943309 19378,6737.196,91.723,361.401,356.721,0.0
55663.0,STARLINK-5473,PAYLOAD,2023-06-17 21:26:00,15.69918455,0.0004081,69.9991,172.1947,286.5789,73.4959,6.5707e-05,7.694e-05,0.0,0 STARLINK-5473,1 55663U 23021AM  23168.89306090  .00007694  00000-0  65707-4 0  9993,2 55663  69.9991 172.1947 0004081 286.5789  73.4959 15.69918455 19706,6737.267,91.725,361.882,356.383,0.0
55663.0,STARLINK-5473,PAYLOAD,2023-06-17 22:57:45,15.6992544,0.0003384,69.9991,172.0157,274.9855,85.0954,4.6999e-05,5.442e-05,0.0,0 STARLINK-5473,1 55663U 23021AM  23168.95677515  .00005442  00000-0  46999-4 0  9994,2 55663  69.9991 172.0157 0003384 274.9855  85.0954 15.69925440 19401,6737.247,91.724,361.392,356.832,0.0
55663.0,STARLINK-5473,PAYLOAD,2023-06-18 09:40:01,15.69944989,0.0003479,69.9993,170.7617,263.8903,96.1896,0.00018681,0.00022329,0.0,0 STARLINK-5473,1 55663U 23021AM  23169.40278938  .00022329  00000-0  18681-3 0  9990,2 55663  69.9993 170.7617 0003479 263.8903  96.1896 15.69944989 19783,6737.191,91.723,361.4,356.713,0.0
